start=new Date('2022-08-03T00:00:00.000Z').valueOf();
sats=[{"INCLINATION":"53.0563","ECCENTRICITY":"0.00013740","MEAN_MOTION_DOT":"0.00000856","TLE_LINE2":"2 45764  53.0563   1.3708 0001374  81.1778 278.9366 15.06399284118239","RCS_SIZE":"LARGE","ARG_OF_PERICENTER":"81.1778","NORAD_CAT_ID":"45764","REV_AT_EPOCH":"11823","RA_OF_ASC_NODE":"1.3708","ELEMENT_SET_NO":"999","PERIOD":"95.592","CLASSIFICATION_TYPE":"U","EPHEMERIS_TYPE":"0","MEAN_MOTION_DDOT":"0.0000000000000","FILE":"3527697","TLE_LINE1":"1 45764U 20038AL  22214.36000011  .00000856  00000-0  76336-4 0  9999","MEAN_MOTION":"15.06399284","PERIAPSIS":"546.264","TIME_SYSTEM":"UTC","OBJECT_TYPE":"PAYLOAD","REF_FRAME":"TEME","APOAPSIS":"548.167","OBJECT_ID":"2020-038AL","CENTER_NAME":"EARTH","COUNTRY_CODE":"US","SEMIMAJOR_AXIS":"6925.351","SITE":"AFETR","OBJECT_NAME":"STARLINK-1502","MEAN_ELEMENT_THEORY":"SGP4","LAUNCH_DATE":"2020-06-13","EPOCH":"2022-08-02T08:38:24.009504","MEAN_ANOMALY":"278.9366","BSTAR":"0.00007633600000","DECAY_DATE":null,"GP_ID":"209425688"},{"TLE_LINE2":"2 45766  53.0561 359.3236 0001509  74.2229 285.8926 15.06395007118288","MEAN_MOTION_DOT":"-0.00000384","INCLINATION":"53.0561","ECCENTRICITY":"0.00015090","NORAD_CAT_ID":"45766","ARG_OF_PERICENTER":"74.2229","RCS_SIZE":"LARGE","ELEMENT_SET_NO":"999","RA_OF_ASC_NODE":"359.3236","PERIOD":"95.592","REV_AT_EPOCH":"11828","TLE_LINE1":"1 45766U 20038AN  22214.81337260 -.00000384  00000-0 -68620-5 0  9996","MEAN_MOTION":"15.06395007","MEAN_MOTION_DDOT":"0.0000000000000","FILE":"3527804","CLASSIFICATION_TYPE":"U","EPHEMERIS_TYPE":"0","REF_FRAME":"TEME","APOAPSIS":"548.274","OBJECT_TYPE":"PAYLOAD","PERIAPSIS":"546.184","TIME_SYSTEM":"UTC","SITE":"AFETR","SEMIMAJOR_AXIS":"6925.364","CENTER_NAME":"EARTH","OBJECT_ID":"2020-038AN","COUNTRY_CODE":"US","BSTAR":"-0.00000686200000","MEAN_ANOMALY":"285.8926","LAUNCH_DATE":"2020-06-13","MEAN_ELEMENT_THEORY":"SGP4","EPOCH":"2022-08-02T19:31:15.392640","OBJECT_NAME":"STARLINK-1509","DECAY_DATE":null,"GP_ID":"209453403"},{"ECCENTRICITY":"0.00012670","INCLINATION":"53.0548","MEAN_MOTION_DOT":"0.00001082","TLE_LINE2":"2 45767  53.0548   0.8632 0001267  79.6461 280.4671 15.06399421118237","RCS_SIZE":"LARGE","ARG_OF_PERICENTER":"79.6461","NORAD_CAT_ID":"45767","REV_AT_EPOCH":"11823","PERIOD":"95.592","ELEMENT_SET_NO":"999","RA_OF_ASC_NODE":"0.8632","EPHEMERIS_TYPE":"0","CLASSIFICATION_TYPE":"U","FILE":"3527697","MEAN_MOTION_DDOT":"0.0000000000000","MEAN_MOTION":"15.06399421","TLE_LINE1":"1 45767U 20038AP  22214.47426744  .00001082  00000-0  91490-4 0  9999","TIME_SYSTEM":"UTC","PERIAPSIS":"546.338","OBJECT_TYPE":"PAYLOAD","APOAPSIS":"548.093","REF_FRAME":"TEME","COUNTRY_CODE":"US","CENTER_NAME":"EARTH","OBJECT_ID":"2020-038AP","SEMIMAJOR_AXIS":"6925.350","SITE":"AFETR","OBJECT_NAME":"STARLINK-1511","MEAN_ELEMENT_THEORY":"SGP4","LAUNCH_DATE":"2020-06-13","EPOCH":"2022-08-02T11:22:56.706816","MEAN_ANOMALY":"280.4671","BSTAR":"0.00009149000000","GP_ID":"209425186","DECAY_DATE":null},{"INCLINATION":"53.0548","ECCENTRICITY":"0.00014050","TLE_LINE2":"2 45768  53.0548   1.2257 0001405  90.6515 269.4635 15.06385660118230","MEAN_MOTION_DOT":"-0.00001318","ARG_OF_PERICENTER":"90.6515","RCS_SIZE":"LARGE","NORAD_CAT_ID":"45768","REV_AT_EPOCH":"11823","ELEMENT_SET_NO":"999","RA_OF_ASC_NODE":"1.2257","PERIOD":"95.593","MEAN_MOTION_DDOT":"0.0000000000000","FILE":"3527697","CLASSIFICATION_TYPE":"U","EPHEMERIS_TYPE":"0","TLE_LINE1":"1 45768U 20038AQ  22214.38950124 -.00001318  00000-0 -69603-4 0  9999","MEAN_MOTION":"15.06385660","OBJECT_TYPE":"PAYLOAD","PERIAPSIS":"546.284","TIME_SYSTEM":"UTC","REF_FRAME":"TEME","APOAPSIS":"548.231","OBJECT_ID":"2020-038AQ","CENTER_NAME":"EARTH","COUNTRY_CODE":"US","SITE":"AFETR","SEMIMAJOR_AXIS":"6925.393","EPOCH":"2022-08-02T09:20:52.907136","LAUNCH_DATE":"2020-06-13","MEAN_ELEMENT_THEORY":"SGP4","OBJECT_NAME":"STARLINK-1521","BSTAR":"-0.00006960300000","MEAN_ANOMALY":"269.4635","GP_ID":"209424937","DECAY_DATE":null},{"DECAY_DATE":null,"GP_ID":"209453153","MEAN_ANOMALY":"272.7120","BSTAR":"0.00001556900000","OBJECT_NAME":"STARLINK-1459","MEAN_ELEMENT_THEORY":"SGP4","LAUNCH_DATE":"2020-06-13","EPOCH":"2022-08-02T21:04:08.407776","SEMIMAJOR_AXIS":"6925.355","SITE":"AFETR","CENTER_NAME":"EARTH","OBJECT_ID":"2020-038AR","COUNTRY_CODE":"US","REF_FRAME":"TEME","APOAPSIS":"548.160","PERIAPSIS":"546.281","TIME_SYSTEM":"UTC","OBJECT_TYPE":"PAYLOAD","TLE_LINE1":"1 45769U 20038AR  22214.87787509 -.00000050  00000-0  15569-4 0  9992","MEAN_MOTION":"15.06397759","CLASSIFICATION_TYPE":"U","EPHEMERIS_TYPE":"0","MEAN_MOTION_DDOT":"0.0000000000000","FILE":"3527804","RA_OF_ASC_NODE":"19.0525","ELEMENT_SET_NO":"999","PERIOD":"95.592","REV_AT_EPOCH":"11802","NORAD_CAT_ID":"45769","RCS_SIZE":"LARGE","ARG_OF_PERICENTER":"87.4024","MEAN_MOTION_DOT":"-0.00000050","TLE_LINE2":"2 45769  53.0544  19.0525 0001357  87.4024 272.7120 15.06397759118022","INCLINATION":"53.0544","ECCENTRICITY":"0.00013570"},{"RCS_SIZE":"LARGE","ARG_OF_PERICENTER":"74.4437","NORAD_CAT_ID":"45770","INCLINATION":"53.0576","ECCENTRICITY":"0.00013920","MEAN_MOTION_DOT":"0.00000685","TLE_LINE2":"2 45770  53.0576 339.3277 0001392  74.4437 285.6706 15.06404677118564","CLASSIFICATION_TYPE":"U","EPHEMERIS_TYPE":"0","MEAN_MOTION_DDOT":"0.0000000000000","FILE":"3527804","TLE_LINE1":"1 45770U 20038AS  22214.81426798  .00000685  00000-0  64901-4 0  9995","MEAN_MOTION":"15.06404677","REV_AT_EPOCH":"11856","ELEMENT_SET_NO":"999","RA_OF_ASC_NODE":"339.3277","PERIOD":"95.592","CENTER_NAME":"EARTH","OBJECT_ID":"2020-038AS","COUNTRY_CODE":"US","SEMIMAJOR_AXIS":"6925.334","SITE":"AFETR","PERIAPSIS":"546.235","TIME_SYSTEM":"UTC","OBJECT_TYPE":"PAYLOAD","REF_FRAME":"TEME","APOAPSIS":"548.163","DECAY_DATE":null,"GP_ID":"209453903","OBJECT_NAME":"STARLINK-1462","LAUNCH_DATE":"2020-06-13","EPOCH":"2022-08-02T19:32:32.753472","MEAN_ELEMENT_THEORY":"SGP4","MEAN_ANOMALY":"285.6706","BSTAR":"0.00006490100000"},{"OBJECT_TYPE":"PAYLOAD","TIME_SYSTEM":"UTC","PERIAPSIS":"546.280","APOAPSIS":"548.154","REF_FRAME":"TEME","COUNTRY_CODE":"US","OBJECT_ID":"2020-038AT","CENTER_NAME":"EARTH","SITE":"AFETR","SEMIMAJOR_AXIS":"6925.352","EPOCH":"2022-08-02T08:14:31.226208","LAUNCH_DATE":"2020-06-13","MEAN_ELEMENT_THEORY":"SGP4","OBJECT_NAME":"STARLINK-1463","BSTAR":"0.00013808000000","MEAN_ANOMALY":"271.9722","GP_ID":"209424688","DECAY_DATE":null,"ECCENTRICITY":"0.00013530","INCLINATION":"53.0553","TLE_LINE2":"2 45771  53.0553 341.4528 0001353  88.1422 271.9722 15.06398922118499","MEAN_MOTION_DOT":"0.00001776","ARG_OF_PERICENTER":"88.1422","RCS_SIZE":"LARGE","NORAD_CAT_ID":"45771","REV_AT_EPOCH":"11849","PERIOD":"95.592","ELEMENT_SET_NO":"999","RA_OF_ASC_NODE":"341.4528","FILE":"3527697","MEAN_MOTION_DDOT":"0.0000000000000","EPHEMERIS_TYPE":"0","CLASSIFICATION_TYPE":"U","MEAN_MOTION":"15.06398922","TLE_LINE1":"1 45771U 20038AT  22214.34341697  .00001776  00000-0  13808-3 0  9999"},{"REV_AT_EPOCH":"11850","PERIOD":"95.592","RA_OF_ASC_NODE":"341.4805","ELEMENT_SET_NO":"999","FILE":"3527697","MEAN_MOTION_DDOT":"0.0000000000000","EPHEMERIS_TYPE":"0","CLASSIFICATION_TYPE":"U","MEAN_MOTION":"15.06403904","TLE_LINE1":"1 45772U 20038AU  22214.33235782 -.00000896  00000-0 -41222-4 0  9992","ECCENTRICITY":"0.00015720","INCLINATION":"53.0571","TLE_LINE2":"2 45772  53.0571 341.4805 0001572 103.9593 256.1571 15.06403904118502","MEAN_MOTION_DOT":"-0.00000896","ARG_OF_PERICENTER":"103.9593","RCS_SIZE":"LARGE","NORAD_CAT_ID":"45772","LAUNCH_DATE":"2020-06-13","MEAN_ELEMENT_THEORY":"SGP4","EPOCH":"2022-08-02T07:58:35.715648","OBJECT_NAME":"STARLINK-1470","BSTAR":"-0.00004122200000","MEAN_ANOMALY":"256.1571","DECAY_DATE":null,"GP_ID":"209425437","OBJECT_TYPE":"PAYLOAD","TIME_SYSTEM":"UTC","PERIAPSIS":"546.113","APOAPSIS":"548.290","REF_FRAME":"TEME","COUNTRY_CODE":"US","CENTER_NAME":"EARTH","OBJECT_ID":"2020-038AU","SITE":"AFETR","SEMIMAJOR_AXIS":"6925.337"},{"REV_AT_EPOCH":"11949","RA_OF_ASC_NODE":"340.6399","ELEMENT_SET_NO":"999","PERIOD":"95.592","MEAN_MOTION_DDOT":"0.0000000000000","FILE":"3527746","CLASSIFICATION_TYPE":"U","EPHEMERIS_TYPE":"0","TLE_LINE1":"1 45773U 20038AV  22214.52401931  .00002340  00000-0  17595-3 0  9994","MEAN_MOTION":"15.06402098","INCLINATION":"53.0552","ECCENTRICITY":"0.00011640","TLE_LINE2":"2 45773  53.0552 340.6399 0001164  85.7519 274.3603 15.06402098119493","MEAN_MOTION_DOT":"0.00002340","ARG_OF_PERICENTER":"85.7519","RCS_SIZE":"LARGE","NORAD_CAT_ID":"45773","EPOCH":"2022-08-02T12:34:35.268384","LAUNCH_DATE":"2020-06-13","MEAN_ELEMENT_THEORY":"SGP4","OBJECT_NAME":"STARLINK-1482","BSTAR":"0.00017595000000","MEAN_ANOMALY":"274.3603","GP_ID":"209432850","DECAY_DATE":null,"OBJECT_TYPE":"PAYLOAD","PERIAPSIS":"546.401","TIME_SYSTEM":"UTC","REF_FRAME":"TEME","APOAPSIS":"548.013","CENTER_NAME":"EARTH","OBJECT_ID":"2020-038AV","COUNTRY_CODE":"US","SITE":"AFETR","SEMIMAJOR_AXIS":"6925.342"},{"PERIOD":"95.591","ELEMENT_SET_NO":"999","RA_OF_ASC_NODE":"340.7734","REV_AT_EPOCH":"11852","MEAN_MOTION":"15.06425562","TLE_LINE1":"1 45774U 20038AW  22214.49452647 -.00003683  00000-0 -22832-3 0  9994","FILE":"3527697","MEAN_MOTION_DDOT":"0.0000000000000","EPHEMERIS_TYPE":"0","CLASSIFICATION_TYPE":"U","TLE_LINE2":"2 45774  53.0559 340.7734 0001878  81.7224 278.3978 15.06425562118529","MEAN_MOTION_DOT":"-0.00003683","ECCENTRICITY":"0.00018780","INCLINATION":"53.0559","NORAD_CAT_ID":"45774","ARG_OF_PERICENTER":"81.7224","RCS_SIZE":"LARGE","BSTAR":"-0.00022832000000","MEAN_ANOMALY":"278.3978","LAUNCH_DATE":"2020-06-13","MEAN_ELEMENT_THEORY":"SGP4","EPOCH":"2022-08-02T11:52:07.087008","OBJECT_NAME":"STARLINK-1485","GP_ID":"209426439","DECAY_DATE":null,"APOAPSIS":"548.436","REF_FRAME":"TEME","OBJECT_TYPE":"PAYLOAD","TIME_SYSTEM":"UTC","PERIAPSIS":"545.835","SITE":"AFETR","SEMIMAJOR_AXIS":"6925.270","COUNTRY_CODE":"US","OBJECT_ID":"2020-038AW","CENTER_NAME":"EARTH"}];
